[
    {
        "Altitude(m)": 566847.3866095826,
        "Argument of Periapsis(deg)": -0.037671934638287344,
        "Eccentricity": 0.0,
        "Inclination(deg)": 97.0,
        "Latitude(deg)": -2.8058359504341066,
        "Longitude(deg)": -43.585637470911635,
        "Mean Anomaly(deg)": -2.648761218020878,
        "RAAN(deg)": 60.00991175603085,
        "Satellite Name": "Starlink Shell 3 1748",
        "Satellite Number": 1748,
        "Semi-Major Axis(m)": 6938478.169268562,
        "Time(s)": 950
    },
    {
        "Altitude(m)": 566749.2958047066,
        "Argument of Periapsis(deg)": -0.03806848131869037,
        "Eccentricity": 0.0,
        "Inclination(deg)": 97.0,
        "Latitude(deg)": -2.1815235306037555,
        "Longitude(deg)": -43.70369793623963,
        "Mean Anomaly(deg)": -2.0232850203158192,
        "RAAN(deg)": 60.01001609030486,
        "Satellite Name": "Starlink Shell 3 1748",
        "Satellite Number": 1748,
        "Semi-Major Axis(m)": 6938478.169268562,
        "Time(s)": 960
    },
    {
        "Altitude(m)": 566655.4535501817,
        "Argument of Periapsis(deg)": -0.0384650279990934,
        "Eccentricity": 0.0,
        "Inclination(deg)": 97.0,
        "Latitude(deg)": -1.5571859879071204,
        "Longitude(deg)": -43.82169759703803,
        "Mean Anomaly(deg)": -1.3978088226107483,
        "RAAN(deg)": 60.01012042457886,
        "Satellite Name": "Starlink Shell 3 1748",
        "Satellite Number": 1748,
        "Semi-Major Axis(m)": 6938478.169268562,
        "Time(s)": 970
    },
    {
        "Altitude(m)": 566565.8760063619,
        "Argument of Periapsis(deg)": -0.03886157467949641,
        "Eccentricity": 0.0,
        "Inclination(deg)": 97.0,
        "Latitude(deg)": -0.9328263127480848,
        "Longitude(deg)": -43.93965457169328,
        "Mean Anomaly(deg)": -0.7723326249057914,
        "RAAN(deg)": 60.01022475885287,
        "Satellite Name": "Starlink Shell 3 1748",
        "Satellite Number": 1748,
        "Semi-Major Axis(m)": 6938478.169268562,
        "Time(s)": 980
    },
    {
        "Altitude(m)": 566480.577261639,
        "Argument of Periapsis(deg)": -0.03925812135989944,
        "Eccentricity": 0.0,
        "Inclination(deg)": 97.0,
        "Latitude(deg)": -0.30844749761282153,
        "Longitude(deg)": -44.057586434997305,
        "Mean Anomaly(deg)": -0.1468564272007455,
        "RAAN(deg)": 60.010329093126884,
        "Satellite Name": "Starlink Shell 3 1748",
        "Satellite Number": 1748,
        "Semi-Major Axis(m)": 6938478.169268562,
        "Time(s)": 990
    }
]